{"type": "FeatureCollection", "features": [ {"type": "Feature", "properties": {"norad_id": 37089, "name": "COSMOS 2251 DEB", "group": "cosmos-2251-debris", "lat": -65.95097705857467, "lon": 94.38546037379395, "alt_km": 667.019218026644, "timestamp": "2025-12-18T19:29:52.939714+00:00", "meta": {"OBJECT_NAME": "COSMOS 2251 DEB", "OBJECT_ID": "1993-036BFK", "EPOCH": "2025-12-15T02:35:52.652256", "MEAN_MOTION": 14.5300115, "ECCENTRICITY": 0.01350597, "INCLINATION": 74.0363, "RA_OF_ASC_NODE": 141.2743, "ARG_OF_PERICENTER": 240.987, "MEAN_ANOMALY": 117.7703, "EPHEMERIS_TYPE": 0, "CLASSIFICATION_TYPE": "U", "NORAD_CAT_ID": 37089, "ELEMENT_SET_NO": 999, "REV_AT_EPOCH": 66144, "BSTAR": 0.0016025339, "MEAN_MOTION_DOT": 7.435e-05, "MEAN_MOTION_DDOT": 0}, "tle": {"line1": "1 37089U 93036BFK 25349.10824829  .00007435  00000+0  16025-2 0  9999", "line2": "2 37089  74.0363 141.2743 0135059 240.9870 117.7703 14.53001150661444"}}, "geometry": {"type": "Point", "coordinates": [94.38546037379395, -65.95097705857467]}}, {"type": "Feature", "properties": {"norad_id": 37094, "name": "COSMOS 2251 DEB", "group": "cosmos-2251-debris", "lat": 72.1637817797483, "lon": 172.32803686540765, "alt_km": 698.6407175965523, "timestamp": "2025-12-18T19:29:52.939724+00:00", "meta": {"OBJECT_NAME": "COSMOS 2251 DEB", "OBJECT_ID": "1993-036BFQ", "EPOCH": "2025-12-10T15:45:11.030688", "MEAN_MOTION": 14.37808892, "ECCENTRICITY": 0.0084108, "INCLINATION": 74.1091, "RA_OF_ASC_NODE": 124.9809, "ARG_OF_PERICENTER": 91.4784, "MEAN_ANOMALY": 269.6007, "EPHEMERIS_TYPE": 0, "CLASSIFICATION_TYPE": "U", "NORAD_CAT_ID": 37094, "ELEMENT_SET_NO": 999, "REV_AT_EPOCH": 84476, "BSTAR": 0.0015212, "MEAN_MOTION_DOT": 4.753e-05, "MEAN_MOTION_DDOT": 0}, "tle": {"line1": "1 37094U 93036BFQ 25344.65637767  .00004753  00000+0  15212-2 0  9990", "line2": "2 37094  74.1091 124.9809 0084108  91.4784 269.6007 14.37808892844763"}}, "geometry": {"type": "Point", "coordinates": [172.32803686540765, 72.1637817797483]}}, {"type": "Feature", "properties": {"norad_id": 37095, "name": "COSMOS 2251 DEB", "group": "cosmos-2251-debris", "lat": -18.650563804317837, "lon": 173.60306213213892, "alt_km": 919.927268139897, "timestamp": "2025-12-18T19:29:52.939733+00:00", "meta": {"OBJECT_NAME": "COSMOS 2251 DEB", "OBJECT_ID": "1993-036BFR", "EPOCH": "2025-12-14T06:06:08.543520", "MEAN_MOTION": 14.03409585, "ECCENTRICITY": 0.019488, "INCLINATION": 73.8479, "RA_OF_ASC_NODE": 187.2421, "ARG_OF_PERICENTER": 244.7942, "MEAN_ANOMALY": 113.2877, "EPHEMERIS_TYPE": 0, "CLASSIFICATION_TYPE": "U", "NORAD_CAT_ID": 37095, "ELEMENT_SET_NO": 999, "REV_AT_EPOCH": 62657, "BSTAR": 0.0017117328, "MEAN_MOTION_DOT": 3.142e-05, "MEAN_MOTION_DDOT": 0}, "tle": {"line1": "1 37095U 93036BFR 25348.25426555  .00003142  00000+0  17117-2 0  9999", "line2": "2 37095  73.8479 187.2421 0194880 244.7942 113.2877 14.03409585626575"}}, "geometry": {"type": "Point", "coordinates": [173.60306213213892, -18.650563804317837]}}, {"type": "Feature", "properties": {"norad_id": 37108, "name": "COSMOS 2251 DEB", "group": "cosmos-2251-debris", "lat": 48.399722839106516, "lon": -129.47530823312763, "alt_km": 686.9454800143776, "timestamp": "2025-12-18T19:29:52.939743+00:00", "meta": {"OBJECT_NAME": "COSMOS 2251 DEB", "OBJECT_ID": "1993-036BGE", "EPOCH": "2025-12-18T05:34:38.722368", "MEAN_MOTION": 14.41344373, "ECCENTRICITY": 0.00907908, "INCLINATION": 74.0448, "RA_OF_ASC_NODE": 70.3953, "ARG_OF_PERICENTER": 145.7411, "MEAN_ANOMALY": 214.9648, "EPHEMERIS_TYPE": 0, "CLASSIFICATION_TYPE": "U", "NORAD_CAT_ID": 37108, "ELEMENT_SET_NO": 999, "REV_AT_EPOCH": 85586, "BSTAR": 0.00091104344, "MEAN_MOTION_DOT": 3.072e-05, "MEAN_MOTION_DDOT": 0}, "tle": {"line1": "1 37108U 93036BGE 25352.23239262  .00003072  00000+0  91104-3 0  9995", "line2": "2 37108  74.0448  70.3953 0090790 145.7411 214.9648 14.41344373855863"}}, "geometry": {"type": "Point", "coordinates": [-129.47530823312763, 48.399722839106516]}}, {"type": "Feature", "properties": {"norad_id": 37126, "name": "COSMOS 2251 DEB", "group": "cosmos-2251-debris", "lat": 2.2038862362906166, "lon": -16.727120865428134, "alt_km": 722.2559988764979, "timestamp": "2025-12-18T19:29:52.939753+00:00", "meta": {"OBJECT_NAME": "COSMOS 2251 DEB", "OBJECT_ID": "1993-036BGY", "EPOCH": "2025-12-15T06:43:54.416352", "MEAN_MOTION": 14.73082746, "ECCENTRICITY": 0.01230943, "INCLINATION": 73.9533, "RA_OF_ASC_NODE": 349.5533, "ARG_OF_PERICENTER": 227.1861, "MEAN_ANOMALY": 131.8915, "EPHEMERIS_TYPE": 0, "CLASSIFICATION_TYPE": "U", "NORAD_CAT_ID": 37126, "ELEMENT_SET_NO": 999, "REV_AT_EPOCH": 8136, "BSTAR": 0.00020663432, "MEAN_MOTION_DOT": 1.461e-05, "MEAN_MOTION_DDOT": 0}, "tle": {"line1": "1 37126U 93036BGY 25349.28049093  .00001461  00000+0  20663-3 0  9999", "line2": "2 37126  73.9533 349.5533 0123094 227.1861 131.8915 14.73082746 81367"}}, "geometry": {"type": "Point", "coordinates": [-16.727120865428134, 2.2038862362906166]}}, {"type": "Feature", "properties": {"norad_id": 37132, "name": "COSMOS 2251 DEB", "group": "cosmos-2251-debris", "lat": 19.30909180533133, "lon": 36.32980892235614, "alt_km": 658.2088705329897, "timestamp": "2025-12-18T19:29:52.939763+00:00", "meta": {"OBJECT_NAME": "COSMOS 2251 DEB", "OBJECT_ID": "1993-036BHE", "EPOCH": "2025-12-15T09:32:55.769280", "MEAN_MOTION": 14.77873409, "ECCENTRICITY": 0.00399597, "INCLINATION": 74.0031, "RA_OF_ASC_NODE": 228.8126, "ARG_OF_PERICENTER": 24.0962, "MEAN_ANOMALY": 336.207, "EPHEMERIS_TYPE": 0, "CLASSIFICATION_TYPE": "U", "NORAD_CAT_ID": 37132, "ELEMENT_SET_NO": 999, "REV_AT_EPOCH": 62455, "BSTAR": 0.00059917342, "MEAN_MOTION_DOT": 4.336e-05, "MEAN_MOTION_DDOT": 0}, "tle": {"line1": "1 37132U 93036BHE 25349.39786770  .00004336  00000+0  59917-3 0  9996", "line2": "2 37132  74.0031 228.8126 0039959  24.0962 336.2070 14.77873409624553"}}, "geometry": {"type": "Point", "coordinates": [36.32980892235614, 19.30909180533133]}}, {"type": "Feature", "properties": {"norad_id": 37270, "name": "COSMOS 2251 DEB", "group": "cosmos-2251-debris", "lat": -66.90467279025478, "lon": -171.51744619915218, "alt_km": 998.2191177157065, "timestamp": "2025-12-18T19:29:52.939773+00:00", "meta": {"OBJECT_NAME": "COSMOS 2251 DEB", "OBJECT_ID": "1993-036BHJ", "EPOCH": "2025-12-12T22:45:06.098400", "MEAN_MOTION": 13.59808663, "ECCENTRICITY": 0.03985351, "INCLINATION": 73.9378, "RA_OF_ASC_NODE": 335.5481, "ARG_OF_PERICENTER": 347.3958, "MEAN_ANOMALY": 11.7404, "EPHEMERIS_TYPE": 0, "CLASSIFICATION_TYPE": "U", "NORAD_CAT_ID": 37270, "ELEMENT_SET_NO": 999, "REV_AT_EPOCH": 77072, "BSTAR": 0.0064936549, "MEAN_MOTION_DOT": 8.148e-05, "MEAN_MOTION_DDOT": 0}, "tle": {"line1": "1 37270U 93036BHJ 25346.94798725  .00008148  00000+0  64937-2 0  9992", "line2": "2 37270  73.9378 335.5481 0398535 347.3958  11.7404 13.59808663770728"}}, "geometry": {"type": "Point", "coordinates": [-171.51744619915218, -66.90467279025478]}}, {"type": "Feature", "properties": {"norad_id": 37278, "name": "COSMOS 2251 DEB", "group": "cosmos-2251-debris", "lat": 45.362982964779334, "lon": -4.51003914375286, "alt_km": 912.2714680675854, "timestamp": "2025-12-18T19:29:52.939783+00:00", "meta": {"OBJECT_NAME": "COSMOS 2251 DEB", "OBJECT_ID": "1993-036BHS", "EPOCH": "2025-12-04T09:26:36.152736", "MEAN_MOTION": 14.15029915, "ECCENTRICITY": 0.029998, "INCLINATION": 73.7864, "RA_OF_ASC_NODE": 4.3592, "ARG_OF_PERICENTER": 188.2556, "MEAN_ANOMALY": 234.4903, "EPHEMERIS_TYPE": 0, "CLASSIFICATION_TYPE": "U", "NORAD_CAT_ID": 37278, "ELEMENT_SET_NO": 999, "REV_AT_EPOCH": 63711, "BSTAR": 0.0023061, "MEAN_MOTION_DOT": 6.884e-05, "MEAN_MOTION_DDOT": 0}, "tle": {"line1": "1 37278U 93036BHS 25338.39347399  .00006884  00000+0  23061-2 0  9995", "line2": "2 37278  73.7864   4.3592 0299980 188.2556 234.4903 14.15029915637119"}}, "geometry": {"type": "Point", "coordinates": [-4.51003914375286, 45.362982964779334]}}, {"type": "Feature", "properties": {"norad_id": 37280, "name": "COSMOS 2251 DEB", "group": "cosmos-2251-debris", "lat": 73.87550213315387, "lon": 128.2676463527645, "alt_km": 811.8375246754749, "timestamp": "2025-12-18T19:29:52.939793+00:00", "meta": {"OBJECT_NAME": "COSMOS 2251 DEB", "OBJECT_ID": "1993-036BHU", "EPOCH": "2025-12-14T22:02:27.434112", "MEAN_MOTION": 14.19330541, "ECCENTRICITY": 0.01308275, "INCLINATION": 74.0321, "RA_OF_ASC_NODE": 53.1735, "ARG_OF_PERICENTER": 181.3662, "MEAN_ANOMALY": 178.7145, "EPHEMERIS_TYPE": 0, "CLASSIFICATION_TYPE": "U", "NORAD_CAT_ID": 37280, "ELEMENT_SET_NO": 999, "REV_AT_EPOCH": 57354, "BSTAR": 0.00096264954, "MEAN_MOTION_DOT": 2.177e-05, "MEAN_MOTION_DDOT": 0}, "tle": {"line1": "1 37280U 93036BHU 25348.91837308  .00002177  00000+0  96265-3 0  9999", "line2": "2 37280  74.0321  53.1735 0130827 181.3662 178.7145 14.19330541573549"}}, "geometry": {"type": "Point", "coordinates": [128.2676463527645, 73.87550213315387]}}, {"type": "Feature", "properties": {"norad_id": 37284, "name": "COSMOS 2251 DEB", "group": "cosmos-2251-debris", "lat": -52.205023343406324, "lon": 124.2830648750521, "alt_km": 741.8302501074686, "timestamp": "2025-12-18T19:29:52.939803+00:00", "meta": {"OBJECT_NAME": "COSMOS 2251 DEB", "OBJECT_ID": "1993-036BHY", "EPOCH": "2025-12-10T18:04:20.469216", "MEAN_MOTION": 14.12686618, "ECCENTRICITY": 0.01605026, "INCLINATION": 74.0123, "RA_OF_ASC_NODE": 160.2425, "ARG_OF_PERICENTER": 312.4867, "MEAN_ANOMALY": 59.8736, "EPHEMERIS_TYPE": 0, "CLASSIFICATION_TYPE": "U", "NORAD_CAT_ID": 37284, "ELEMENT_SET_NO": 999, "REV_AT_EPOCH": 59147, "BSTAR": 0.001592138, "MEAN_MOTION_DOT": 3.31e-05, "MEAN_MOTION_DDOT": 0}, "tle": {"line1": "1 37284U 93036BHY 25344.75301469  .00003310  00000+0  15921-2 0  9994", "line2": "2 37284  74.0123 160.2425 0160502 312.4867  59.8736 14.12686618591475"}}, "geometry": {"type": "Point", "coordinates": [124.2830648750521, -52.205023343406324]}}]}